[{"OBJECT_NAME":"KUIPER-00196","OBJECT_ID":"2025-301M","EPOCH":"2026-03-05T08:15:55.816992","MEAN_MOTION":15.38615916,"ECCENTRICITY":0.00037845,"INCLINATION":51.87,"RA_OF_ASC_NODE":85.8732,"ARG_OF_PERICENTER":9.9788,"MEAN_ANOMALY":350.1274,"EPHEMERIS_TYPE":0,"CLASSIFICATION_TYPE":"U","NORAD_CAT_ID":67144,"ELEMENT_SET_NO":999,"REV_AT_EPOCH":1307,"BSTAR":0.00126614,"MEAN_MOTION_DOT":0.0004898,"MEAN_MOTION_DDOT":0},{"OBJECT_NAME":"KUIPER-00204","OBJECT_ID":"2025-301N","EPOCH":"2026-03-05T12:48:37.072224","MEAN_MOTION":15.25954009,"ECCENTRICITY":0.00030507,"INCLINATION":51.8847,"RA_OF_ASC_NODE":90.0007,"ARG_OF_PERICENTER":332.451,"MEAN_ANOMALY":27.631,"EPHEMERIS_TYPE":0,"CLASSIFICATION_TYPE":"U","NORAD_CAT_ID":67145,"ELEMENT_SET_NO":999,"REV_AT_EPOCH":1314,"BSTAR":0.0011786958,"MEAN_MOTION_DOT":0.00030475,"MEAN_MOTION_DDOT":0},{"OBJECT_NAME":"KUIPER-00210","OBJECT_ID":"2025-301P","EPOCH":"2026-03-05T14:00:01.999872","MEAN_MOTION":14.8402774,"ECCENTRICITY":0.00111032,"INCLINATION":51.8993,"RA_OF_ASC_NODE":91.3855,"ARG_OF_PERICENTER":60.4365,"MEAN_ANOMALY":152.9999,"EPHEMERIS_TYPE":0,"CLASSIFICATION_TYPE":"U","NORAD_CAT_ID":67146,"ELEMENT_SET_NO":999,"REV_AT_EPOCH":561,"BSTAR":0.0029294839,"MEAN_MOTION_DOT":0.00024523,"MEAN_MOTION_DDOT":0},{"OBJECT_NAME":"KUIPER-00221","OBJECT_ID":"2025-301Q","EPOCH":"2026-03-05T02:01:39.805536","MEAN_MOTION":14.7998519,"ECCENTRICITY":6.121e-5,"INCLINATION":51.9008,"RA_OF_ASC_NODE":100.9697,"ARG_OF_PERICENTER":107.2753,"MEAN_ANOMALY":252.8276,"EPHEMERIS_TYPE":0,"CLASSIFICATION_TYPE":"U","NORAD_CAT_ID":67147,"ELEMENT_SET_NO":999,"REV_AT_EPOCH":1284,"BSTAR":0.00067593303,"MEAN_MOTION_DOT":4.942e-5,"MEAN_MOTION_DDOT":0},{"OBJECT_NAME":"KUIPER-00232","OBJECT_ID":"2025-301R","EPOCH":"2026-03-05T14:00:01.999872","MEAN_MOTION":15.15520867,"ECCENTRICITY":0.00022588,"INCLINATION":51.8804,"RA_OF_ASC_NODE":85.709,"ARG_OF_PERICENTER":139.4811,"MEAN_ANOMALY":290.9004,"EPHEMERIS_TYPE":0,"CLASSIFICATION_TYPE":"U","NORAD_CAT_ID":67148,"ELEMENT_SET_NO":999,"REV_AT_EPOCH":532,"BSTAR":-0.07595294,"MEAN_MOTION_DOT":-0.01343722,"MEAN_MOTION_DDOT":0},{"OBJECT_NAME":"KUIPER-00241","OBJECT_ID":"2025-301S","EPOCH":"2026-03-05T14:00:01.999872","MEAN_MOTION":14.80070014,"ECCENTRICITY":0.0001312,"INCLINATION":51.901,"RA_OF_ASC_NODE":93.7703,"ARG_OF_PERICENTER":91.7246,"MEAN_ANOMALY":19.4836,"EPHEMERIS_TYPE":0,"CLASSIFICATION_TYPE":"U","NORAD_CAT_ID":67149,"ELEMENT_SET_NO":999,"REV_AT_EPOCH":573,"BSTAR":0.0034774785,"MEAN_MOTION_DOT":0.0002648,"MEAN_MOTION_DDOT":0},{"OBJECT_NAME":"KUIPER-00245","OBJECT_ID":"2025-301T","EPOCH":"2026-03-05T01:57:46.878048","MEAN_MOTION":14.79932036,"ECCENTRICITY":5.258e-5,"INCLINATION":51.9025,"RA_OF_ASC_NODE":103.5032,"ARG_OF_PERICENTER":66.5774,"MEAN_ANOMALY":293.5243,"EPHEMERIS_TYPE":0,"CLASSIFICATION_TYPE":"U","NORAD_CAT_ID":67150,"ELEMENT_SET_NO":999,"REV_AT_EPOCH":1280,"BSTAR":-0.00020996179,"MEAN_MOTION_DOT":-1.821e-5,"MEAN_MOTION_DDOT":0},{"OBJECT_NAME":"KUIPER-00246","OBJECT_ID":"2025-301U","EPOCH":"2026-03-05T14:00:01.999872","MEAN_MOTION":15.07194299,"ECCENTRICITY":0.00054824,"INCLINATION":51.9011,"RA_OF_ASC_NODE":87.1444,"ARG_OF_PERICENTER":51.1172,"MEAN_ANOMALY":97.0528,"EPHEMERIS_TYPE":0,"CLASSIFICATION_TYPE":"U","NORAD_CAT_ID":67151,"ELEMENT_SET_NO":999,"REV_AT_EPOCH":590,"BSTAR":-0.082785035,"MEAN_MOTION_DOT":-0.01159948,"MEAN_MOTION_DDOT":0},{"OBJECT_NAME":"KUIPER-00247","OBJECT_ID":"2025-301V","EPOCH":"2026-03-05T10:43:51.208608","MEAN_MOTION":15.3666791,"ECCENTRICITY":0.00144498,"INCLINATION":51.8631,"RA_OF_ASC_NODE":86.4717,"ARG_OF_PERICENTER":41.5093,"MEAN_ANOMALY":318.6988,"EPHEMERIS_TYPE":0,"CLASSIFICATION_TYPE":"U","NORAD_CAT_ID":67152,"ELEMENT_SET_NO":999,"REV_AT_EPOCH":1307,"BSTAR":0.0014406793,"MEAN_MOTION_DOT":0.00052538,"MEAN_MOTION_DDOT":0},{"OBJECT_NAME":"KUIPER-00248","OBJECT_ID":"2025-301W","EPOCH":"2026-03-05T11:30:45.463104","MEAN_MOTION":15.37254007,"ECCENTRICITY":0.00111032,"INCLINATION":51.8662,"RA_OF_ASC_NODE":85.9805,"ARG_OF_PERICENTER":27.5366,"MEAN_ANOMALY":332.6207,"EPHEMERIS_TYPE":0,"CLASSIFICATION_TYPE":"U","NORAD_CAT_ID":67153,"ELEMENT_SET_NO":999,"REV_AT_EPOCH":1325,"BSTAR":0.001013545,"MEAN_MOTION_DOT":0.00037428,"MEAN_MOTION_DDOT":0},{"OBJECT_NAME":"KUIPER-00249","OBJECT_ID":"2025-301X","EPOCH":"2026-03-05T10:51:50.470272","MEAN_MOTION":15.37927295,"ECCENTRICITY":0.00101789,"INCLINATION":51.8651,"RA_OF_ASC_NODE":85.7905,"ARG_OF_PERICENTER":27.9363,"MEAN_ANOMALY":332.2169,"EPHEMERIS_TYPE":0,"CLASSIFICATION_TYPE":"U","NORAD_CAT_ID":67154,"ELEMENT_SET_NO":999,"REV_AT_EPOCH":1308,"BSTAR":0.0011072779,"MEAN_MOTION_DOT":0.00041848,"MEAN_MOTION_DDOT":0},{"OBJECT_NAME":"KUIPER-00250","OBJECT_ID":"2025-301Y","EPOCH":"2026-03-05T14:00:01.999872","MEAN_MOTION":14.98197601,"ECCENTRICITY":0.00093099,"INCLINATION":51.8922,"RA_OF_ASC_NODE":88.5647,"ARG_OF_PERICENTER":37.8054,"MEAN_ANOMALY":134.5696,"EPHEMERIS_TYPE":0,"CLASSIFICATION_TYPE":"U","NORAD_CAT_ID":67155,"ELEMENT_SET_NO":999,"REV_AT_EPOCH":590,"BSTAR":-0.15228047,"MEAN_MOTION_DOT":-0.01673651,"MEAN_MOTION_DDOT":0},{"OBJECT_NAME":"KUIPER-00251","OBJECT_ID":"2025-301Z","EPOCH":"2026-03-05T11:16:03.768384","MEAN_MOTION":15.37479342,"ECCENTRICITY":0.00110108,"INCLINATION":51.8649,"RA_OF_ASC_NODE":85.906,"ARG_OF_PERICENTER":33.8952,"MEAN_ANOMALY":326.2736,"EPHEMERIS_TYPE":0,"CLASSIFICATION_TYPE":"U","NORAD_CAT_ID":67156,"ELEMENT_SET_NO":999,"REV_AT_EPOCH":1327,"BSTAR":0.0017851401,"MEAN_MOTION_DOT":0.00066967,"MEAN_MOTION_DDOT":0},{"OBJECT_NAME":"KUIPER-00252","OBJECT_ID":"2025-301AA","EPOCH":"2026-03-05T11:41:34.963008","MEAN_MOTION":15.37172587,"ECCENTRICITY":0.00125672,"INCLINATION":51.8644,"RA_OF_ASC_NODE":86.0155,"ARG_OF_PERICENTER":37.8953,"MEAN_ANOMALY":322.2916,"EPHEMERIS_TYPE":0,"CLASSIFICATION_TYPE":"U","NORAD_CAT_ID":67157,"ELEMENT_SET_NO":999,"REV_AT_EPOCH":1308,"BSTAR":0.0012747191,"MEAN_MOTION_DOT":0.00047136,"MEAN_MOTION_DDOT":0},{"OBJECT_NAME":"KUIPER-00261","OBJECT_ID":"2025-301AB","EPOCH":"2026-03-05T14:00:01.999872","MEAN_MOTION":14.95316907,"ECCENTRICITY":0.00111022,"INCLINATION":51.8957,"RA_OF_ASC_NODE":88.8431,"ARG_OF_PERICENTER":40.5032,"MEAN_ANOMALY":228.0788,"EPHEMERIS_TYPE":0,"CLASSIFICATION_TYPE":"U","NORAD_CAT_ID":67158,"ELEMENT_SET_NO":999,"REV_AT_EPOCH":531,"BSTAR":-0.16580789,"MEAN_MOTION_DOT":-0.01690591,"MEAN_MOTION_DDOT":0},{"OBJECT_NAME":"KUIPER-00265","OBJECT_ID":"2025-301AC","EPOCH":"2026-03-05T10:00:08.461440","MEAN_MOTION":14.79927863,"ECCENTRICITY":0.00012786,"INCLINATION":51.9022,"RA_OF_ASC_NODE":104.507,"ARG_OF_PERICENTER":27.4554,"MEAN_ANOMALY":332.6476,"EPHEMERIS_TYPE":0,"CLASSIFICATION_TYPE":"U","NORAD_CAT_ID":67159,"ELEMENT_SET_NO":999,"REV_AT_EPOCH":1285,"BSTAR":0.00065265718,"MEAN_MOTION_DOT":4.757e-5,"MEAN_MOTION_DDOT":0}]
